NORAD_CAT_ID,OBJECT_NAME,OBJECT_TYPE,EPOCH,MEAN_MOTION,ECCENTRICITY,INCLINATION,RA_OF_ASC_NODE,ARG_OF_PERICENTER,MEAN_ANOMALY,BSTAR,MEAN_MOTION_DOT,MEAN_MOTION_DDOT,TLE_LINE0,TLE_LINE1,TLE_LINE2,SEMIMAJOR_AXIS,PERIOD,APOGEE,PERIGEE,DECAYED
50835.0,STARLINK-3310,PAYLOAD,2023-11-04 14:51:05,15.08847523,0.0001324,53.2177,62.2892,84.6846,275.4297,0.00029037,4.337e-05,0.0,0 STARLINK-3310,1 50835U 22001AJ  23308.61881010  .00004337  00000-0  29037-3 0  9998,2 50835  53.2177  62.2892 0001324  84.6846 275.4297 15.08847523101026,6917.857,95.437,540.638,538.806,0.0
50835.0,STARLINK-3310,PAYLOAD,2023-11-05 00:23:24,15.08843281,0.0001408,53.2174,60.5073,92.8362,267.2792,0.00015605,2.197e-05,0.0,0 STARLINK-3310,1 50835U 22001AJ  23309.01625317  .00002197  00000-0  15605-3 0  9997,2 50835  53.2174  60.5073 0001408  92.8362 267.2792 15.08843281102344,6917.87,95.437,540.709,538.761,0.0
50835.0,STARLINK-3310,PAYLOAD,2023-11-05 14:41:51,15.08855704,0.0001434,53.2175,57.8293,92.8624,267.2533,0.0003695,5.6e-05,0.0,0 STARLINK-3310,1 50835U 22001AJ  23309.61240673  .00005600  00000-0  36950-3 0  9999,2 50835  53.2175  57.8293 0001434  92.8624 267.2533 15.08855704101174,6917.832,95.437,540.689,538.705,0.0
50835.0,STARLINK-3310,PAYLOAD,2023-11-06 11:21:53,15.08834491,0.0001145,53.2167,53.9656,85.552,274.5603,-8.392e-05,-1.623e-05,0.0,0 STARLINK-3310,1 50835U 22001AJ  23310.47353079 -.00001623  00000-0 -83920-4 0  9993,2 50835  53.2167  53.9656 0001145  85.5520 274.5603 15.08834491102561,6917.897,95.438,540.554,538.97,0.0
50835.0,STARLINK-3310,PAYLOAD,2023-11-06 14:32:40,15.0878748,0.0001253,53.2171,53.3705,93.778,266.3355,-0.0012372,-0.00019895,0.0,0 STARLINK-3310,1 50835U 22001AJ  23310.60602691 -.00019895  00000-0 -12372-2 0  9996,2 50835  53.2171  53.3705 0001253  93.7780 266.3355 15.08787480101325,6918.041,95.441,540.773,539.039,0.0
50835.0,STARLINK-3310,PAYLOAD,2023-11-07 00:05:00,15.08788613,0.0001362,53.2173,51.586,88.3621,271.7527,-0.00082247,-0.00013335,0.0,0 STARLINK-3310,1 50835U 22001AJ  23311.00347907 -.00013335  00000-0 -82247-3 0  9999,2 50835  53.2173  51.5860 0001362  88.3621 271.7527 15.08788613102640,6918.037,95.441,540.845,538.96,0.0
50835.0,STARLINK-3310,PAYLOAD,2023-11-07 11:12:43,15.08810827,0.0001703,53.2175,49.5056,84.061,276.0576,6.1499e-05,6.9e-06,0.0,0 STARLINK-3310,1 50835U 22001AJ  23311.46716614  .00000690  00000-0  61499-4 0  9999,2 50835  53.2175  49.5056 0001703  84.0610 276.0576 15.08810827102719,6917.97,95.439,541.013,538.656,0.0
50835.0,STARLINK-3310,PAYLOAD,2023-11-07 14:23:28,15.08833462,0.0001587,53.2192,48.9051,77.7577,282.3592,0.00062913,9.737e-05,0.0,0 STARLINK-3310,1 50835U 22001AJ  23311.59964025  .00009737  00000-0  62913-3 0  9996,2 50835  53.2192  48.9051 0001587  77.7577 282.3592 15.08833462101477,6917.9,95.438,540.863,538.668,0.0
50835.0,STARLINK-3310,PAYLOAD,2023-11-08 12:38:53,15.08847349,0.0001387,53.2184,44.7446,92.5826,267.5324,0.0011177,0.00017548,0.0,0 STARLINK-3310,1 50835U 22001AJ  23312.52700237  .00017548  00000-0  11177-2 0  9997,2 50835  53.2184  44.7446 0001387  92.5826 267.5324 15.08847349101613,6917.858,95.437,540.682,538.763,0.0
50835.0,STARLINK-3310,PAYLOAD,2023-11-08 23:46:34,15.08855163,0.0001146,53.2174,42.6669,90.5934,269.5189,0.00073846,0.00011489,0.0,0 STARLINK-3310,1 50835U 22001AJ  23312.99067527  .00011489  00000-0  73846-3 0  9996,2 50835  53.2174  42.6669 0001146  90.5934 269.5189 15.08855163102948,6917.834,95.437,540.492,538.906,0.0
50835.0,STARLINK-3310,PAYLOAD,2023-11-09 12:29:38,15.08860187,0.0001662,53.2198,40.2848,112.8586,247.2582,0.00034029,5.135e-05,0.0,0 STARLINK-3310,1 50835U 22001AJ  23313.52058724  .00005135  00000-0  34029-3 0  9996,2 50835  53.2198  40.2848 0001662 112.8586 247.2582 15.08860187101762,6917.819,95.436,540.833,538.534,0.0
50835.0,STARLINK-3310,PAYLOAD,2023-11-10 12:20:25,15.08855826,0.0001311,53.2181,35.8251,94.8574,265.2568,1.1196e-05,-1.1e-06,0.0,0 STARLINK-3310,1 50835U 22001AJ  23314.51418112 -.00000110  00000-0  11196-4 0  9997,2 50835  53.2181  35.8251 0001311  94.8574 265.2568 15.08855826103174,6917.832,95.437,540.604,538.79,0.0
50835.0,STARLINK-3310,PAYLOAD,2023-11-11 12:11:12,15.08850329,0.0001403,53.2178,31.365,97.0933,263.0219,7.7777e-05,9.5e-06,0.0,0 STARLINK-3310,1 50835U 22001AJ  23315.50777893  .00000950  00000-0  77777-4 0  9999,2 50835  53.2178  31.3650 0001403  97.0933 263.0219 15.08850329103329,6917.849,95.437,540.684,538.743,0.0
50835.0,STARLINK-3310,PAYLOAD,2023-11-12 12:01:59,15.08841732,0.0001329,53.2186,26.9049,87.1502,272.9643,5.0914e-05,5.23e-06,0.0,0 STARLINK-3310,1 50835U 22001AJ  23316.50138666  .00000523  00000-0  50914-4 0  9999,2 50835  53.2186  26.9049 0001329  87.1502 272.9643 15.08841732103473,6917.875,95.437,540.659,538.821,0.0
50835.0,STARLINK-3310,PAYLOAD,2023-11-13 13:28:09,15.08853002,0.0001378,53.2171,22.1471,88.6183,271.4967,0.00022177,3.245e-05,0.0,0 STARLINK-3310,1 50835U 22001AJ  23317.56121844  .00003245  00000-0  22177-3 0  9999,2 50835  53.2171  22.1471 0001378  88.6183 271.4967 15.08853002102373,6917.841,95.437,540.659,538.752,0.0
50835.0,STARLINK-3310,PAYLOAD,2023-11-14 03:46:38,15.08838361,0.0001402,53.2173,19.473,98.0496,262.0655,5.7356e-05,6.25e-06,0.0,0 STARLINK-3310,1 50835U 22001AJ  23318.15738648  .00000625  00000-0  57356-4 0  9998,2 50835  53.2173  19.4730 0001402  98.0496 262.0655 15.08838361103723,6917.885,95.438,540.72,538.781,0.0
50835.0,STARLINK-3310,PAYLOAD,2023-11-14 13:18:56,15.08840805,0.0001428,53.2162,17.6877,94.884,265.2315,8.3068e-05,1.034e-05,0.0,0 STARLINK-3310,1 50835U 22001AJ  23318.55482551  .00001034  00000-0  83068-4 0  9995,2 50835  53.2162  17.6877 0001428  94.8840 265.2315 15.08840805102529,6917.878,95.438,540.731,538.755,0.0
50835.0,STARLINK-3310,PAYLOAD,2023-11-14 21:15:52,15.0883876,0.0001503,53.2162,16.2015,91.4287,268.6878,6.4119e-05,7.33e-06,0.0,0 STARLINK-3310,1 50835U 22001AJ  23318.88602751  .00000733  00000-0  64119-4 0  9998,2 50835  53.2162  16.2015 0001503  91.4287 268.6878 15.08838760102573,6917.884,95.438,540.789,538.709,0.0
50835.0,STARLINK-3310,PAYLOAD,2023-11-15 11:34:21,15.08839359,0.0001518,53.2162,13.525,90.4959,269.6207,7.8908e-05,9.68e-06,0.0,0 STARLINK-3310,1 50835U 22001AJ  23319.48218889  .00000968  00000-0  78908-4 0  9991,2 50835  53.2162  13.5250 0001518  90.4959 269.6207 15.08839359103927,6917.882,95.438,540.797,538.697,0.0
50835.0,STARLINK-3310,PAYLOAD,2023-11-15 21:06:39,15.08843462,0.0001505,53.2166,11.7407,93.206,266.9104,9.3565e-05,1.202e-05,0.0,0 STARLINK-3310,1 50835U 22001AJ  23319.87962817  .00001202  00000-0  93565-4 0  9999,2 50835  53.2166  11.7407 0001505  93.2060 266.9104 15.08843462102728,6917.87,95.437,540.776,538.694,0.0
50835.0,STARLINK-3310,PAYLOAD,2023-11-16 09:49:45,15.08840846,0.0001585,53.2168,9.362,88.1182,271.9991,0.00019501,2.817e-05,0.0,0 STARLINK-3310,1 50835U 22001AJ  23320.40955110  .00002817  00000-0  19501-3 0  9998,2 50835  53.2168   9.3620 0001585  88.1182 271.9991 15.08840846102808,6917.878,95.438,540.839,538.646,0.0
50835.0,STARLINK-3310,PAYLOAD,2023-11-16 20:57:27,15.08839633,0.0001617,53.2171,7.2799,88.4272,271.6905,0.00012997,1.781e-05,0.0,0 STARLINK-3310,1 50835U 22001AJ  23320.87323245  .00001781  00000-0  12997-3 0  9998,2 50835  53.2171   7.2799 0001617  88.4272 271.6905 15.08839633102876,6917.882,95.438,540.865,538.628,0.0
50835.0,STARLINK-3310,PAYLOAD,2023-11-17 03:18:59,15.08840508,0.0001605,53.2171,6.0904,88.6671,271.4505,0.00014456,2.013e-05,0.0,0 STARLINK-3310,1 50835U 22001AJ  23321.13819231  .00002013  00000-0  14456-3 0  9994,2 50835  53.2171   6.0904 0001605  88.6671 271.4505 15.08840508104175,6917.879,95.438,540.854,538.634,0.0
50835.0,STARLINK-3310,PAYLOAD,2023-11-17 09:40:32,15.08839589,0.0001582,53.2174,4.9008,89.2001,270.9173,0.00011347,1.518e-05,0.0,0 STARLINK-3310,1 50835U 22001AJ  23321.40315287  .00001518  00000-0  11347-3 0  9991,2 50835  53.2174   4.9008 0001582  89.2001 270.9173 15.08839589102954,6917.882,95.438,540.841,538.652,0.0
50835.0,STARLINK-3310,PAYLOAD,2023-11-18 09:31:19,15.08843847,0.0001516,53.2182,0.44,90.1507,269.9659,8.3338e-05,1.039e-05,0.0,0 STARLINK-3310,1 50835U 22001AJ  23322.39674993  .00001039  00000-0  83338-4 0  9990,2 50835  53.2182   0.4400 0001516  90.1507 269.9659 15.08843847104365,6917.869,95.437,540.782,538.685,0.0
50835.0,STARLINK-3310,PAYLOAD,2023-11-19 03:00:33,15.08837523,0.000153,53.2183,357.1688,90.5982,269.5185,7.2966e-05,8.73e-06,0.0,0 STARLINK-3310,1 50835U 22001AJ  23323.12539337  .00000873  00000-0  72966-4 0  9994,2 50835  53.2183 357.1688 0001530  90.5982 269.5185 15.08837523104479,6917.888,95.438,540.811,538.695,0.0
50835.0,STARLINK-3310,PAYLOAD,2023-11-19 09:22:06,15.08841263,0.0001477,53.2183,355.98,89.9629,270.1533,9.6977e-05,1.256e-05,0.0,0 STARLINK-3310,1 50835U 22001AJ  23323.39035125  .00001256  00000-0  96977-4 0  9993,2 50835  53.2183 355.9800 0001477  89.9629 270.1533 15.08841263103257,6917.877,95.437,540.763,538.72,0.0
50835.0,STARLINK-3310,PAYLOAD,2023-11-20 09:12:53,15.08842413,0.0001544,53.2187,351.5218,102.3562,257.7603,6.8105e-05,7.96e-06,0.0,0 STARLINK-3310,1 50835U 22001AJ  23324.38395064  .00000796  00000-0  68105-4 0  9994,2 50835  53.2187 351.5218 0001544 102.3562 257.7603 15.08842413104660,6917.873,95.437,540.806,538.67,0.0
50835.0,STARLINK-3310,PAYLOAD,2023-11-20 12:23:39,15.08847194,0.0001411,53.2172,350.924,95.23,264.8853,0.00010475,1.38e-05,0.0,0 STARLINK-3310,1 50835U 22001AJ  23324.51642646  .00001380  00000-0  10475-3 0  9996,2 50835  53.2172 350.9240 0001411  95.2300 264.8853 15.08847194103425,6917.858,95.437,540.7,538.747,0.0
50835.0,STARLINK-3310,PAYLOAD,2023-11-21 10:39:03,15.08842434,0.0001464,53.2176,346.76,89.3782,270.7378,4.9493e-05,5e-06,0.0,0 STARLINK-3310,1 50835U 22001AJ  23325.44379162  .00000500  00000-0  49493-4 0  9995,2 50835  53.2176 346.7600 0001464  89.3782 270.7378 15.08842434104823,6917.873,95.437,540.751,538.725,0.0
